CCSDS_OEM_VERS = 1.0
CREATION_DATE  = 2017-05-11T11:35:38
ORIGINATOR     = GMAT USER

META_START
OBJECT_NAME          = MOPSSat_alt_35785_km_RAAN_180_072
OBJECT_ID            = SatId
CENTER_NAME          = Earth
REF_FRAME            = EME2000
TIME_SYSTEM          = UTC
START_TIME           = 2017-01-01T00:00:00.000
USEABLE_START_TIME   = 2017-01-01T00:00:00.000
USEABLE_STOP_TIME    = 2017-01-02T00:00:00.000
STOP_TIME            = 2017-01-02T00:00:00.000
INTERPOLATION        = Lagrange
INTERPOLATION_DEGREE = 7 
META_STOP


                                                                                   

2017-01-01T01:22:30.000  -3.939930507107426e+04  -1.490510633397519e+04   2.621827873545039e+00   1.087975006423132e+00  -2.878804138254682e+00   5.095515974079769e-04
2017-01-01T01:22:40.000  -3.938841481632895e+04  -1.493389039890600e+04   2.626922731279397e+00   1.090075802735563e+00  -2.878008479258758e+00   5.094198796367247e-04
2017-01-01T01:22:50.000  -3.937750355654602e+04  -1.496266649954380e+04   2.632016270335320e+00   1.092176016223456e+00  -2.877211286112010e+00   5.092878628619391e-04
2017-01-01T01:23:00.000  -3.936657129764528e+04  -1.499143462032349e+04   2.637108487683133e+00   1.094275645748267e+00  -2.876412559249227e+00   5.091555471492374e-04
2017-01-01T01:23:10.000  -3.935561804558396e+04  -1.502019474561564e+04   2.642199380281666e+00   1.096374690166764e+00  -2.875612299107943e+00   5.090229325647250e-04
2017-01-01T01:23:20.000  -3.934464380610553e+04  -1.504894686038643e+04   2.647288945195068e+00   1.098473148379186e+00  -2.874810506110075e+00   5.088900191719452e-04
2017-01-01T01:23:30.000  -3.933364858499130e+04  -1.507769094953601e+04   2.652377179475686e+00   1.100571019280960e+00  -2.874007180680310e+00   5.087568070349354e-04
2017-01-01T01:23:40.000  -3.932263238799573e+04  -1.510642699806938e+04   2.657464080194314e+00   1.102668301775169e+00  -2.873202323241374e+00   5.086232962174385e-04
2017-01-01T01:23:50.000  -3.931159522101992e+04  -1.513515499063668e+04   2.662549644358822e+00   1.104764994738998e+00  -2.872395934226714e+00   5.084894867850092e-04
2017-01-01T01:24:00.000  -3.930053708996883e+04  -1.516387491191268e+04   2.667633868981330e+00   1.106861097051439e+00  -2.871588014070054e+00   5.083553788032809e-04
2017-01-01T01:24:10.000  -3.928945800078407e+04  -1.519258674650928e+04   2.672716751062724e+00   1.108956607586896e+00  -2.870778563207809e+00   5.082209723383652e-04
2017-01-01T01:24:20.000  -3.927835795943245e+04  -1.522129047900996e+04   2.677798287598729e+00   1.111051525217704e+00  -2.869967582078231e+00   5.080862674567124e-04
2017-01-01T01:24:30.000  -3.926723697189848e+04  -1.524998609398531e+04   2.682878475582688e+00   1.113145848815261e+00  -2.869155071120872e+00   5.079512642250216e-04
2017-01-01T01:24:40.000  -3.925609504417120e+04  -1.527867357602743e+04   2.687957312011641e+00   1.115239577252543e+00  -2.868341030775619e+00   5.078159627100787e-04
2017-01-01T01:24:50.000  -3.924493218223908e+04  -1.530735290976649e+04   2.693034793889250e+00   1.117332709405302e+00  -2.867525461482318e+00   5.076803629786965e-04
2017-01-01T01:25:00.000  -3.923374839207537e+04  -1.533602407990388e+04   2.698110918231674e+00   1.119425244154497e+00  -2.866708363679709e+00   5.075444650975368e-04
2017-01-01T01:25:10.000  -3.922254367967280e+04  -1.536468707112538e+04   2.703185682052206e+00   1.121517180379952e+00  -2.865889737807953e+00   5.074082691335302e-04
2017-01-01T01:25:20.000  -3.921131805089371e+04  -1.539334186847805e+04   2.708259082427991e+00   1.123608516987861e+00  -2.865069584297694e+00   5.072717751520594e-04
2017-01-01T01:25:30.000  -3.920007151165117e+04  -1.542198845691334e+04   2.713331116419141e+00   1.125699252877445e+00  -2.864247903583286e+00   5.071349832191549e-04
2017-01-01T01:25:40.000  -3.918880406784069e+04  -1.545062682145988e+04   2.718401781099323e+00   1.127789386953563e+00  -2.863424696097796e+00   5.069978934006686e-04
2017-01-01T01:25:50.000  -3.917751572560353e+04  -1.547925694655382e+04   2.723471073437192e+00   1.129878918077835e+00  -2.862599962292258e+00   5.068605057654635e-04
2017-01-01T01:26:00.000  -3.916620649106358e+04  -1.550787881670858e+04   2.728538990414972e+00   1.131967845117526e+00  -2.861773702616435e+00   5.067228203822269e-04
2017-01-01T01:26:10.000  -3.915487637039513e+04  -1.553649241634188e+04   2.733605528997844e+00   1.134056166932923e+00  -2.860945917523773e+00   5.065848373202883e-04
2017-01-01T01:26:20.000  -3.914352536964418e+04  -1.556509773023362e+04   2.738670686214990e+00   1.136143882410746e+00  -2.860116607458354e+00   5.064465566474643e-04
2017-01-01T01:26:30.000  -3.913215349487557e+04  -1.559369474314785e+04   2.743734459092691e+00   1.138230990436566e+00  -2.859285772865638e+00   5.063079784318293e-04
2017-01-01T01:26:40.000  -3.912076075213898e+04  -1.562228343992007e+04   2.748796844669758e+00   1.140317489901173e+00  -2.858453414189976e+00   5.061691027413102e-04
2017-01-01T01:26:50.000  -3.910934714748096e+04  -1.565086380542284e+04   2.753857839991475e+00   1.142403379698063e+00  -2.857619531875503e+00   5.060299296438130e-04
2017-01-01T01:27:00.000  -3.909791268695248e+04  -1.567943582455040e+04   2.758917442106843e+00   1.144488658722322e+00  -2.856784126366669e+00   5.058904592073320e-04
2017-01-01T01:27:10.000  -3.908645737662248e+04  -1.570799948218433e+04   2.763975648062526e+00   1.146573325868115e+00  -2.855947198109249e+00   5.057506915001128e-04
2017-01-01T01:27:20.000  -3.907498122258324e+04  -1.573655476317721e+04   2.769032454899945e+00   1.148657380027496e+00  -2.855108747550720e+00   5.056106265907252e-04
2017-01-01T01:27:30.000  -3.906348423096518e+04  -1.576510165231955e+04   2.774087859649419e+00   1.150740820087991e+00  -2.854268775141356e+00   5.054702645482375e-04
2017-01-01T01:27:40.000  -3.905196640790148e+04  -1.579364013442627e+04   2.779141859345486e+00   1.152823644938913e+00  -2.853427281331628e+00   5.053296054417831e-04
2017-01-01T01:27:50.000  -3.904042775968178e+04  -1.582217019396150e+04   2.784194450960448e+00   1.154905853443980e+00  -2.852584266583444e+00   5.051886493424323e-04
2017-01-01T01:28:00.000  -3.902886829256632e+04  -1.585069181549348e+04   2.789245631484943e+00   1.156987444474507e+00  -2.851739731356569e+00   5.050473963209290e-04
2017-01-01T01:28:10.000  -3.901728801285469e+04  -1.587920498352528e+04   2.794295397897955e+00   1.159068416897065e+00  -2.850893676113646e+00   5.049058464485299e-04
2017-01-01T01:28:20.000  -3.900568692661999e+04  -1.590770968315083e+04   2.799343747283009e+00   1.161148769621344e+00  -2.850046101300773e+00   5.047639997937651e-04
2017-01-01T01:28:30.000  -3.899406503997379e+04  -1.593620589940049e+04   2.804390676712261e+00   1.163228501552406e+00  -2.849197007366858e+00   5.046218564256662e-04
2017-01-01T01:28:40.000  -3.898242235900658e+04  -1.596469361738953e+04   2.809436183272803e+00   1.165307611601508e+00  -2.848346394759278e+00   5.044794164130421e-04
2017-01-01T01:28:50.000  -3.897075888993565e+04  -1.599317282194798e+04   2.814480264001115e+00   1.167386098659101e+00  -2.847494263934674e+00   5.043366798262681e-04
2017-01-01T01:29:00.000  -3.895907463899602e+04  -1.602164349789580e+04   2.819522915931777e+00   1.169463961614897e+00  -2.846640615350985e+00   5.041936467359729e-04
2017-01-01T01:29:10.000  -3.894736961243938e+04  -1.605010563004237e+04   2.824564136097400e+00   1.171541199357848e+00  -2.845785449467374e+00   5.040503172130174e-04
2017-01-01T01:29:20.000  -3.893564381664935e+04  -1.607855920291401e+04   2.829603921480344e+00   1.173617810756247e+00  -2.844928766752644e+00   5.039066913299240e-04
2017-01-01T01:29:30.000  -3.892389725798721e+04  -1.610700420112148e+04   2.834642269077824e+00   1.175693794684558e+00  -2.844070567673968e+00   5.037627691589722e-04
2017-01-01T01:29:40.000  -3.891212994285244e+04  -1.613544060921510e+04   2.839679175876241e+00   1.177769150012834e+00  -2.843210852701313e+00   5.036185507729420e-04
2017-01-01T01:29:50.000  -3.890034187741713e+04  -1.616386841232651e+04   2.844714638964863e+00   1.179843875653561e+00  -2.842349622288037e+00   5.034740362418521e-04
2017-01-01T01:30:00.000  -3.888853306789130e+04  -1.619228759552678e+04   2.849748655422128e+00   1.181917970514811e+00  -2.841486876890274e+00   5.033292256362197e-04
2017-01-01T01:30:10.000  -3.887670352046330e+04  -1.622069814397177e+04   2.854781222341387e+00   1.183991433510845e+00  -2.840622616962573e+00   5.031841190263266e-04
2017-01-01T01:30:20.000  -3.886485324145013e+04  -1.624910004253295e+04   2.859812336765518e+00   1.186064263535175e+00  -2.839756842968892e+00   5.030387164840643e-04
2017-01-01T01:30:30.000  -3.885298223718658e+04  -1.627749327607180e+04   2.864841995735529e+00   1.188136459480589e+00  -2.838889555374485e+00   5.028930180815759e-04
2017-01-01T01:30:40.000  -3.884109051402423e+04  -1.630587782943939e+04   2.869870196290477e+00   1.190208020239115e+00  -2.838020754645838e+00   5.027470238912390e-04
2017-01-01T01:30:50.000  -3.882917807844840e+04  -1.633425368720453e+04   2.874896935419316e+00   1.192278944682194e+00  -2.837150441259216e+00   5.026007339871101e-04
2017-01-01T01:31:00.000  -3.881724493692155e+04  -1.636262083402039e+04   2.879922210125837e+00   1.194349231687422e+00  -2.836278615689209e+00   5.024541484429933e-04
2017-01-01T01:31:10.000  -3.880529109594585e+04  -1.639097925447717e+04   2.884946017402574e+00   1.196418880127804e+00  -2.835405278413314e+00   5.023072673332149e-04
2017-01-01T01:31:20.000  -3.879331656178889e+04  -1.641932893375282e+04   2.889968354346086e+00   1.198487888919249e+00  -2.834530429891899e+00   5.021600907292467e-04
2017-01-01T01:31:30.000  -3.878132134075851e+04  -1.644766985696065e+04   2.894989218041370e+00   1.200556256972947e+00  -2.833654070588265e+00   5.020126187030892e-04
